{
  "norad_id": 56718,
  "name": "ONEWEB-0682",
  "history": [
    {
      "epoch": "2026-04-30T15:33:00.094464Z",
      "apogee_km": 1202.9661094553103,
      "perigee_km": 1200.5661605247096,
      "latitude_deg": 1.0592828994659671e-05,
      "longitude_deg": 176.8290539516513,
      "height_km": 1205.1650207392195,
      "semi_major_axis_km": 7579.90313499001,
      "eccentricity": 0.00015831,
      "inclination_deg": 87.8964,
      "raan_deg": 268.6711,
      "arg_perigee_deg": 114.9317,
      "mean_anomaly_deg": 245.1978,
      "mean_motion_rev_day": 13.15549756
    },
    {
      "epoch": "2026-05-02T09:32:01.181760Z",
      "apogee_km": 1202.9898502257502,
      "perigee_km": 1200.5430573908598,
      "latitude_deg": -9.026945958697807e-06,
      "longitude_deg": -94.99878619731385,
      "height_km": 1205.1894834071243,
      "semi_major_axis_km": 7579.903453808304,
      "eccentricity": 0.0001614,
      "inclination_deg": 87.8966,
      "raan_deg": 268.322,
      "arg_perigee_deg": 115.6722,
      "mean_anomaly_deg": 244.4575,
      "mean_motion_rev_day": 13.15549673
    },
    {
      "epoch": "2026-05-03T20:12:56.779776Z",
      "apogee_km": 1203.0315435365692,
      "perigee_km": 1200.501371762407,
      "latitude_deg": 5.274280689993393e-07,
      "longitude_deg": 103.0566082062271,
      "height_km": 1205.2181277954592,
      "semi_major_axis_km": 7579.903457649488,
      "eccentricity": 0.0001669,
      "inclination_deg": 87.8967,
      "raan_deg": 268.0334,
      "arg_perigee_deg": 116.2085,
      "mean_anomaly_deg": 243.9217,
      "mean_motion_rev_day": 13.15549672
    },
    {
      "epoch": "2026-05-04T16:17:41.554752Z",
      "apogee_km": 1203.0555660238751,
      "perigee_km": 1200.4753672242377,
      "latitude_deg": 4.359261715054944e-05,
      "longitude_deg": 160.87832497277162,
      "height_km": 1205.225748691606,
      "semi_major_axis_km": 7579.902466624057,
      "eccentricity": 0.0001702,
      "inclination_deg": 87.8967,
      "raan_deg": 267.8663,
      "arg_perigee_deg": 116.0909,
      "mean_anomaly_deg": 244.0397,
      "mean_motion_rev_day": 13.1554993
    }
  ]
}